[{"OBJECT_NAME":"GEESAT-1 05","OBJECT_ID":"2022-058E","EPOCH":"2026-03-09T23:16:32.924064","MEAN_MOTION":14.9973595,"ECCENTRICITY":0.00033659,"INCLINATION":49.9868,"RA_OF_ASC_NODE":292.6549,"ARG_OF_PERICENTER":123.1289,"MEAN_ANOMALY":236.998,"EPHEMERIS_TYPE":0,"CLASSIFICATION_TYPE":"U","NORAD_CAT_ID":52789,"ELEMENT_SET_NO":999,"REV_AT_EPOCH":20531,"BSTAR":0.00050752064,"MEAN_MOTION_DOT":6.088e-5,"MEAN_MOTION_DDOT":0},{"OBJECT_NAME":"STARLINK-33858","OBJECT_ID":"2025-094X","EPOCH":"2026-03-09T21:19:27.102432","MEAN_MOTION":14.98295766,"ECCENTRICITY":0.00030228,"INCLINATION":70.0024,"RA_OF_ASC_NODE":233.9225,"ARG_OF_PERICENTER":280.7717,"MEAN_ANOMALY":79.3101,"EPHEMERIS_TYPE":0,"CLASSIFICATION_TYPE":"U","NORAD_CAT_ID":63885,"ELEMENT_SET_NO":999,"REV_AT_EPOCH":4723,"BSTAR":-0.0026464788,"MEAN_MOTION_DOT":-0.00031501,"MEAN_MOTION_DDOT":0}]
